NORAD_CAT_ID,OBJECT_NAME,OBJECT_TYPE,EPOCH,MEAN_MOTION,ECCENTRICITY,INCLINATION,RA_OF_ASC_NODE,ARG_OF_PERICENTER,MEAN_ANOMALY,BSTAR,MEAN_MOTION_DOT,MEAN_MOTION_DDOT,TLE_LINE0,TLE_LINE1,TLE_LINE2,SEMIMAJOR_AXIS,PERIOD,APOGEE,PERIGEE,DECAYED
52362.0,STARLINK-3848,PAYLOAD,2022-08-06 13:31:17,15.0974994,0.0001858,53.2183,315.0046,86.618,273.5025,-0.010348,-0.00165304,0.0,0 STARLINK-3848,1 52362U 22045AH  22218.56340043 -.00165304  00000-0 -10348-1 0  9999,2 52362  53.2183 315.0046 0001858  86.6180 273.5025 15.09749940 17989,6915.1,95.38,538.25,535.681,0.0
52362.0,STARLINK-3848,PAYLOAD,2022-08-06 22:00:00,15.08836673,0.0001638,53.2169,313.4139,39.5461,81.1189,-0.0018978999999999,-0.00030364,0.0,0 STARLINK-3848,1 52362U 22045AH  22218.91667824 -.00030364  00000-0 -18979-2 0  9993,2 52362  53.2169 313.4139 0001638  39.5461  81.1189 15.08836673 18033,6917.891,95.438,540.889,538.622,0.0
52362.0,STARLINK-3848,PAYLOAD,2022-08-07 13:21:56,15.08937623,0.0001901,53.2176,310.5404,49.1665,310.9492,-0.001373,-0.00022132,0.0,0 STARLINK-3848,1 52362U 22045AH  22219.55689890 -.00022132  00000-0 -13730-2 0  9995,2 52362  53.2176 310.5404 0001901  49.1665 310.9492 15.08937623 18138,6917.581999999999,95.431,540.762,538.132,0.0
52362.0,STARLINK-3848,PAYLOAD,2022-08-07 22:00:00,15.08853471,0.0001621999999999,53.2166,308.9248,40.1689,115.2401,-0.0016605,-0.00026627,0.0,0 STARLINK-3848,1 52362U 22045AH  22219.91667824 -.00026627  00000-0 -16605-2 0  9995,2 52362  53.2166 308.9248 0001622  40.1689 115.2401 15.08853471  1306,6917.839,95.437,540.826,538.582,0.0
52362.0,STARLINK-3848,PAYLOAD,2022-08-08 14:00:01,15.08855882,0.0001757,53.2166,305.9331,40.3508,138.3437,0.00057427,8.867e-05,0.0,0 STARLINK-3848,1 52362U 22045AH  22220.58335648  .00008867  00000-0  57427-3 0  9998,2 52362  53.2166 305.9331 0001757  40.3508 138.3437 15.08855882 18285,6917.831999999999,95.437,540.9119999999998,538.481,0.0
52362.0,STARLINK-3848,PAYLOAD,2022-08-08 22:00:00,15.0887915,0.0001714,53.2163,304.4355,42.6734,147.5858,-0.0027132,-0.00043256,0.0,0 STARLINK-3848,1 52362U 22045AH  22220.91667824 -.00043256  00000-0 -27132-2 0  9991,2 52362  53.2163 304.4355 0001714  42.6734 147.5858 15.08879150  1309,6917.761,95.435,540.811,538.44,0.0
52362.0,STARLINK-3848,PAYLOAD,2022-08-09 14:00:01,15.08833174,0.0001916999999999,53.2163,301.4441,44.629,168.8477,-0.0016660999999999,-0.00026702,0.0,0 STARLINK-3848,1 52362U 22045AH  22221.58334491 -.00026702  00000-0 -16661-2 0  9998,2 52362  53.2163 301.4441 0001917  44.6290 168.8477 15.08833174 18437,6917.901,95.438,541.092,538.44,0.0
52362.0,STARLINK-3848,PAYLOAD,2022-08-09 22:00:00,15.08824923,0.0001818,53.2161,299.9465,45.3111,179.745,-0.0044101999999999,-0.00069769,0.0,0 STARLINK-3848,1 52362U 22045AH  22221.91667824 -.00069769  00000-0 -44102-2 0  9995,2 52362  53.2161 299.9465 0001818  45.3111 179.7450 15.08824923  1304,6917.926,95.439,541.049,538.534,0.0
52362.0,STARLINK-3848,PAYLOAD,2022-08-10 14:00:01,15.08799379,0.0001963,53.2161,296.9554,43.0664,205.0792,0.0026425999999999,0.00041973,0.0,0 STARLINK-3848,1 52362U 22045AH  22222.58334491  .00041973  00000-0  26426-2 0  9994,2 52362  53.2161 296.9554 0001963  43.0664 205.0792 15.08799379  1307,6918.005,95.44,541.2280000000002,538.512,0.0
52362.0,STARLINK-3848,PAYLOAD,2022-08-10 17:07:18,15.08813741,0.0001938,53.2159,296.3715,41.0307,193.9988,0.0019579,0.00030987,0.0,0 STARLINK-3848,1 52362U 22045AH  22222.71341435  .00030987  00000-0  19579-2 0  9999,2 52362  53.2159 296.3715 0001938  41.0307 193.9988 15.08813741 18604,6917.9609999999975,95.439,541.1659999999998,538.485,0.0
52362.0,STARLINK-3848,PAYLOAD,2022-08-10 22:00:00,15.0883882,0.0001834,53.2161,295.4577,43.6564,216.0537,-0.0012125999999999,-0.00019534,0.0,0 STARLINK-3848,1 52362U 22045AH  22222.91667824 -.00019534  00000-0 -12126-2 0  9992,2 52362  53.2161 295.4577 0001834  43.6564 216.0537 15.08838820  1302,6917.884,95.438,541.018,538.48,0.0
52362.0,STARLINK-3848,PAYLOAD,2022-08-11 14:00:01,15.0882119,0.0002053,53.2161,292.4665,42.644,240.2456,0.002363,0.00037501,0.0,0 STARLINK-3848,1 52362U 22045AH  22223.58334491  .00037501  00000-0  23630-2 0  9991,2 52362  53.2161 292.4665 0002053  42.6440 240.2456 15.08821190  1304,6917.938,95.439,541.2230000000002,538.383,0.0
52362.0,STARLINK-3848,PAYLOAD,2022-08-11 22:00:00,15.08852084,0.0001918,53.2161,290.9687,44.0905,250.3882,-0.00091216,-0.00014781,0.0,0 STARLINK-3848,1 52362U 22045AH  22223.91667824 -.00014781  00000-0 -91216-3 0  9990,2 52362  53.2161 290.9687 0001918  44.0905 250.3882 15.08852084 18783,6917.843000000003,95.437,541.035,538.382,0.0
52362.0,STARLINK-3848,PAYLOAD,2022-08-12 14:00:01,15.08854636,0.000207,53.216,287.9773,41.4927,276.2216,-6.9699e-05,-1.398e-05,0.0,0 STARLINK-3848,1 52362U 22045AH  22224.58334491 -.00001398  00000-0 -69699-4 0  9996,2 52362  53.2160 287.9773 0002070  41.4927 276.2216 15.08854636  1302,6917.8359999999975,95.437,541.133,538.269,0.0
52362.0,STARLINK-3848,PAYLOAD,2022-08-12 22:00:01,15.08846203,0.0001865999999999,53.216,286.4793,42.2013,287.19,-0.00022463,-3.862e-05,0.0,0 STARLINK-3848,1 52362U 22045AH  22224.91668981 -.00003862  00000-0 -22463-3 0  9992,2 52362  53.2160 286.4793 0001866  42.2013 287.1900 15.08846203  1307,6917.861,95.437,541.0169999999998,538.436,0.0
52362.0,STARLINK-3848,PAYLOAD,2022-08-13 14:00:01,15.08802033,0.000197,53.2158,283.488,37.6404,314.8891,0.0026460999999999,0.00042033,0.0,0 STARLINK-3848,1 52362U 22045AH  22225.58334491  .00042033  00000-0  26461-2 0  9994,2 52362  53.2158 283.4880 0001970  37.6404 314.8891 15.08802033  1306,6917.996,95.44,541.224,538.499,0.0
52362.0,STARLINK-3848,PAYLOAD,2022-08-13 22:00:00,15.08823781,0.0001792,53.2157,281.99,40.4701,323.6308,0.0001152,1.545e-05,0.0,0 STARLINK-3848,1 52362U 22045AH  22225.91667824  .00001545  00000-0  11520-3 0  9994,2 52362  53.2157 281.9900 0001792  40.4701 323.6308 15.08823781  1309,6917.93,95.439,541.035,538.555,0.0
52362.0,STARLINK-3848,PAYLOAD,2022-08-14 06:00:02,15.088479199999998,0.0001751999999999,53.2164,280.4888,44.1446,331.5931,-0.001323,-0.00021287,0.0,0 STARLINK-3848,1 52362U 22045AH  22226.25002315 -.00021287  00000-0 -13230-2 0  9996,2 52362  53.2164 280.4888 0001752  44.1446 331.5931 15.08847920 19141,6917.856,95.437,540.933,538.509,0.0
52362.0,STARLINK-3848,PAYLOAD,2022-08-14 14:00:01,15.08816885,0.0001965,53.2154,278.9986,37.8964,349.3827,0.0027765,0.0004415,0.0,0 STARLINK-3848,1 52362U 22045AH  22226.58334491  .00044150  00000-0  27765-2 0  9995,2 52362  53.2154 278.9986 0001965  37.8964 349.3827 15.08816885  1307,6917.951,95.439,541.175,538.457,0.0
52362.0,STARLINK-3848,PAYLOAD,2022-08-14 22:00:00,15.08834582,0.0001776999999999,53.2152,277.5005,41.6143,357.2574,0.00078236,0.00012183,0.0,0 STARLINK-3848,1 52362U 22045AH  22226.91667824  .00012183  00000-0  78236-3 0  9992,2 52362  53.2152 277.5005 0001777  41.6143 357.2574 15.08834582  1306,6917.897,95.438,540.991,538.533,0.0
52362.0,STARLINK-3848,PAYLOAD,2022-08-15 00:00:00,15.08821288,0.0001739,53.2151,277.126,42.0698,89.7038,0.0026271999999999,0.00041751,0.0,0 STARLINK-3848,1 52362U 22045AH  22227.00001157  .00041751  00000-0  26272-2 0  9999,2 52362  53.2151 277.1260 0001739  42.0698  89.7038 15.08821288 19256,6917.938,95.439,541.006,538.6,0.0
52362.0,STARLINK-3848,PAYLOAD,2022-08-15 14:00:01,15.08834819,0.000193,53.2148,274.5092,37.0692,25.0039,-0.00022982,-3.943e-05,0.0,0 STARLINK-3848,1 52362U 22045AH  22227.58334491 -.00003943  00000-0 -22982-3 0  9990,2 52362  53.2148 274.5092 0001930  37.0692  25.0039 15.08834819  1302,6917.896,95.438,541.096,538.4259999999998,0.0
52362.0,STARLINK-3848,PAYLOAD,2022-08-15 16:00:00,15.0884201,0.0001921999999999,53.2146,274.1346,36.4071,118.5621,-0.0015607,-0.00025043,0.0,0 STARLINK-3848,1 52362U 22045AH  22227.66667824 -.00025043  00000-0 -15607-2 0  9998,2 52362  53.2146 274.1346 0001922  36.4071 118.5621 15.08842010 19354,6917.874,95.437,541.069,538.41,0.0
52362.0,STARLINK-3848,PAYLOAD,2022-08-15 22:00:00,15.08811142,0.0001706,53.2148,273.0109,39.8117,33.8578,0.001187,0.00018639,0.0,0 STARLINK-3848,1 52362U 22045AH  22227.91667824  .00018639  00000-0  11870-2 0  9995,2 52362  53.2148 273.0109 0001706  39.8117  33.8578 15.08811142  1307,6917.969,95.439,541.014,538.653,0.0
52362.0,STARLINK-3848,PAYLOAD,2022-08-16 14:00:01,15.08808549,0.0001938,53.2144,270.0197,36.1976,60.6273,0.002726,0.00043326,0.0,0 STARLINK-3848,1 52362U 22045AH  22228.58334491  .00043326  00000-0  27260-2 0  9991,2 52362  53.2144 270.0197 0001938  36.1976  60.6273 15.08808549 19493,6917.977,95.44,541.182,538.501,0.0
52362.0,STARLINK-3848,PAYLOAD,2022-08-16 22:00:00,15.08817202,0.0001758,53.2145,268.5214,40.3961,68.0122,0.0016300999999999,0.00025734,0.0,0 STARLINK-3848,1 52362U 22045AH  22228.91667824  .00025734  00000-0  16301-2 0  9994,2 52362  53.2145 268.5214 0001758  40.3961  68.0122 15.08817202  1309,6917.95,95.439,541.031,538.599,0.0
52362.0,STARLINK-3848,PAYLOAD,2022-08-17 06:00:02,15.08853253,0.0001865999999999,53.2145,267.0256,41.8105,78.2359,-0.0018124,-0.00029028,0.0,0 STARLINK-3848,1 52362U 22045AH  22229.25002315 -.00029028  00000-0 -18124-2 0  9997,2 52362  53.2145 267.0256 0001866  41.8105  78.2359 15.08853253 19596,6917.84,95.437,540.996,538.414,0.0
52362.0,STARLINK-3848,PAYLOAD,2022-08-17 16:00:00,15.08846309,0.0002,53.2143,265.1556,37.4,187.0725,-0.00051675,-8.504e-05,0.0,0 STARLINK-3848,1 52362U 22045AH  22229.66667824 -.00008504  00000-0 -51675-3 0  9999,2 52362  53.2143 265.1556 0002000  37.4000 187.0725 15.08846309  1302,6917.861,95.437,541.11,538.3430000000002,0.0
52362.0,STARLINK-3848,PAYLOAD,2022-08-18 14:00:01,15.08841169,0.0002126999999999,53.2146,261.0406,37.2477,129.1361,0.0020116,0.00031873,0.0,0 STARLINK-3848,1 52362U 22045AH  22230.58334491  .00031873  00000-0  20116-2 0  9991,2 52362  53.2146 261.0406 0002127  37.2477 129.1361 15.08841169  1302,6917.877,95.437,541.2130000000002,538.27,0.0
